<?xml version="1.0" encoding="UTF-8"?>
<ndm xmlns:xsi="http://www.w3.org/2001/XMLSchema-instance" xsi:noNamespaceSchemaLocation="https://sanaregistry.org/r/ndmxml_unqualified/ndmxml-2.0.0-master-2.0.xsd">
<omm id="CCSDS_OMM_VERS" version="2.0">
<header><CREATION_DATE/><ORIGINATOR/></header><body><segment><metadata><OBJECT_NAME>KUIPER-00035</OBJECT_NAME><OBJECT_ID>2025-088AA</OBJECT_ID><CENTER_NAME>EARTH</CENTER_NAME><REF_FRAME>TEME</REF_FRAME><TIME_SYSTEM>UTC</TIME_SYSTEM><MEAN_ELEMENT_THEORY>SGP4</MEAN_ELEMENT_THEORY></metadata><data><meanElements><EPOCH>2025-10-27T12:55:26.694624</EPOCH><MEAN_MOTION>14.79897121</MEAN_MOTION><ECCENTRICITY>.00052304</ECCENTRICITY><INCLINATION>51.9045</INCLINATION><RA_OF_ASC_NODE>342.9058</RA_OF_ASC_NODE><ARG_OF_PERICENTER>355.4573</ARG_OF_PERICENTER><MEAN_ANOMALY>4.6341</MEAN_ANOMALY></meanElements><tleParameters><EPHEMERIS_TYPE>0</EPHEMERIS_TYPE><CLASSIFICATION_TYPE>U</CLASSIFICATION_TYPE><NORAD_CAT_ID>63748</NORAD_CAT_ID><ELEMENT_SET_NO>999</ELEMENT_SET_NO><REV_AT_EPOCH>2779</REV_AT_EPOCH><BSTAR>-.36968116E-3</BSTAR><MEAN_MOTION_DOT>-.3038E-4</MEAN_MOTION_DOT><MEAN_MOTION_DDOT>0</MEAN_MOTION_DDOT></tleParameters></data></segment></body></omm>
<omm id="CCSDS_OMM_VERS" version="2.0">
<header><CREATION_DATE/><ORIGINATOR/></header><body><segment><metadata><OBJECT_NAME>KUIPER-00037</OBJECT_NAME><OBJECT_ID>2025-088AB</OBJECT_ID><CENTER_NAME>EARTH</CENTER_NAME><REF_FRAME>TEME</REF_FRAME><TIME_SYSTEM>UTC</TIME_SYSTEM><MEAN_ELEMENT_THEORY>SGP4</MEAN_ELEMENT_THEORY></metadata><data><meanElements><EPOCH>2025-10-27T12:57:45.698400</EPOCH><MEAN_MOTION>14.79974897</MEAN_MOTION><ECCENTRICITY>.00076464</ECCENTRICITY><INCLINATION>51.9012</INCLINATION><RA_OF_ASC_NODE>341.8497</RA_OF_ASC_NODE><ARG_OF_PERICENTER>303.5729</ARG_OF_PERICENTER><MEAN_ANOMALY>56.4503</MEAN_ANOMALY></meanElements><tleParameters><EPHEMERIS_TYPE>0</EPHEMERIS_TYPE><CLASSIFICATION_TYPE>U</CLASSIFICATION_TYPE><NORAD_CAT_ID>63749</NORAD_CAT_ID><ELEMENT_SET_NO>999</ELEMENT_SET_NO><REV_AT_EPOCH>2859</REV_AT_EPOCH><BSTAR>.74452506E-3</BSTAR><MEAN_MOTION_DOT>.5466E-4</MEAN_MOTION_DOT><MEAN_MOTION_DDOT>0</MEAN_MOTION_DDOT></tleParameters></data></segment></body></omm>
<omm id="CCSDS_OMM_VERS" version="2.0">
<header><CREATION_DATE/><ORIGINATOR/></header><body><segment><metadata><OBJECT_NAME>KUIPER-00038</OBJECT_NAME><OBJECT_ID>2025-088AC</OBJECT_ID><CENTER_NAME>EARTH</CENTER_NAME><REF_FRAME>TEME</REF_FRAME><TIME_SYSTEM>UTC</TIME_SYSTEM><MEAN_ELEMENT_THEORY>SGP4</MEAN_ELEMENT_THEORY></metadata><data><meanElements><EPOCH>2025-10-27T13:24:35.517888</EPOCH><MEAN_MOTION>14.80103918</MEAN_MOTION><ECCENTRICITY>.0006499</ECCENTRICITY><INCLINATION>51.9026</INCLINATION><RA_OF_ASC_NODE>326.8011</RA_OF_ASC_NODE><ARG_OF_PERICENTER>358.7006</ARG_OF_PERICENTER><MEAN_ANOMALY>1.3939</MEAN_ANOMALY></meanElements><tleParameters><EPHEMERIS_TYPE>0</EPHEMERIS_TYPE><CLASSIFICATION_TYPE>U</CLASSIFICATION_TYPE><NORAD_CAT_ID>63750</NORAD_CAT_ID><ELEMENT_SET_NO>999</ELEMENT_SET_NO><REV_AT_EPOCH>2780</REV_AT_EPOCH><BSTAR>.4922677E-3</BSTAR><MEAN_MOTION_DOT>.3548E-4</MEAN_MOTION_DOT><MEAN_MOTION_DDOT>0</MEAN_MOTION_DDOT></tleParameters></data></segment></body></omm>
<omm id="CCSDS_OMM_VERS" version="2.0">
<header><CREATION_DATE/><ORIGINATOR/></header><body><segment><metadata><OBJECT_NAME>KUIPER-00039</OBJECT_NAME><OBJECT_ID>2025-134A</OBJECT_ID><CENTER_NAME>EARTH</CENTER_NAME><REF_FRAME>TEME</REF_FRAME><TIME_SYSTEM>UTC</TIME_SYSTEM><MEAN_ELEMENT_THEORY>SGP4</MEAN_ELEMENT_THEORY></metadata><data><meanElements><EPOCH>2025-10-27T20:48:03.746592</EPOCH><MEAN_MOTION>14.79837417</MEAN_MOTION><ECCENTRICITY>.00118764</ECCENTRICITY><INCLINATION>51.8989</INCLINATION><RA_OF_ASC_NODE>100.4191</RA_OF_ASC_NODE><ARG_OF_PERICENTER>209.9078</ARG_OF_PERICENTER><MEAN_ANOMALY>150.1207</MEAN_ANOMALY></meanElements><tleParameters><EPHEMERIS_TYPE>0</EPHEMERIS_TYPE><CLASSIFICATION_TYPE>U</CLASSIFICATION_TYPE><NORAD_CAT_ID>64500</NORAD_CAT_ID><ELEMENT_SET_NO>999</ELEMENT_SET_NO><REV_AT_EPOCH>2040</REV_AT_EPOCH><BSTAR>.13793012E-2</BSTAR><MEAN_MOTION_DOT>.10295E-3</MEAN_MOTION_DOT><MEAN_MOTION_DDOT>0</MEAN_MOTION_DDOT></tleParameters></data></segment></body></omm>
<omm id="CCSDS_OMM_VERS" version="2.0">
<header><CREATION_DATE/><ORIGINATOR/></header><body><segment><metadata><OBJECT_NAME>KUIPER-00040</OBJECT_NAME><OBJECT_ID>2025-134B</OBJECT_ID><CENTER_NAME>EARTH</CENTER_NAME><REF_FRAME>TEME</REF_FRAME><TIME_SYSTEM>UTC</TIME_SYSTEM><MEAN_ELEMENT_THEORY>SGP4</MEAN_ELEMENT_THEORY></metadata><data><meanElements><EPOCH>2025-10-27T12:23:44.872512</EPOCH><MEAN_MOTION>14.79894531</MEAN_MOTION><ECCENTRICITY>.00179783</ECCENTRICITY><INCLINATION>51.8991</INCLINATION><RA_OF_ASC_NODE>113.1309</RA_OF_ASC_NODE><ARG_OF_PERICENTER>186.7875</ARG_OF_PERICENTER><MEAN_ANOMALY>173.2846</MEAN_ANOMALY></meanElements><tleParameters><EPHEMERIS_TYPE>0</EPHEMERIS_TYPE><CLASSIFICATION_TYPE>U</CLASSIFICATION_TYPE><NORAD_CAT_ID>64501</NORAD_CAT_ID><ELEMENT_SET_NO>999</ELEMENT_SET_NO><REV_AT_EPOCH>2019</REV_AT_EPOCH><BSTAR>-.58097258E-4</BSTAR><MEAN_MOTION_DOT>-.67E-5</MEAN_MOTION_DOT><MEAN_MOTION_DDOT>0</MEAN_MOTION_DDOT></tleParameters></data></segment></body></omm>
<omm id="CCSDS_OMM_VERS" version="2.0">
<header><CREATION_DATE/><ORIGINATOR/></header><body><segment><metadata><OBJECT_NAME>KUIPER-00041</OBJECT_NAME><OBJECT_ID>2025-134C</OBJECT_ID><CENTER_NAME>EARTH</CENTER_NAME><REF_FRAME>TEME</REF_FRAME><TIME_SYSTEM>UTC</TIME_SYSTEM><MEAN_ELEMENT_THEORY>SGP4</MEAN_ELEMENT_THEORY></metadata><data><meanElements><EPOCH>2025-10-27T12:22:14.023776</EPOCH><MEAN_MOTION>14.79865053</MEAN_MOTION><ECCENTRICITY>.00145736</ECCENTRICITY><INCLINATION>51.8996</INCLINATION><RA_OF_ASC_NODE>114.4927</RA_OF_ASC_NODE><ARG_OF_PERICENTER>180.7545</ARG_OF_PERICENTER><MEAN_ANOMALY>179.3397</MEAN_ANOMALY></meanElements><tleParameters><EPHEMERIS_TYPE>0</EPHEMERIS_TYPE><CLASSIFICATION_TYPE>U</CLASSIFICATION_TYPE><NORAD_CAT_ID>64502</NORAD_CAT_ID><ELEMENT_SET_NO>999</ELEMENT_SET_NO><REV_AT_EPOCH>2017</REV_AT_EPOCH><BSTAR>-.78386145E-3</BSTAR><MEAN_MOTION_DOT>-.6196E-4</MEAN_MOTION_DOT><MEAN_MOTION_DDOT>0</MEAN_MOTION_DDOT></tleParameters></data></segment></body></omm>
<omm id="CCSDS_OMM_VERS" version="2.0">
<header><CREATION_DATE/><ORIGINATOR/></header><body><segment><metadata><OBJECT_NAME>KUIPER-00042</OBJECT_NAME><OBJECT_ID>2025-134D</OBJECT_ID><CENTER_NAME>EARTH</CENTER_NAME><REF_FRAME>TEME</REF_FRAME><TIME_SYSTEM>UTC</TIME_SYSTEM><MEAN_ELEMENT_THEORY>SGP4</MEAN_ELEMENT_THEORY></metadata><data><meanElements><EPOCH>2025-10-27T20:33:46.473696</EPOCH><MEAN_MOTION>14.79932103</MEAN_MOTION><ECCENTRICITY>.00128442</ECCENTRICITY><INCLINATION>51.9027</INCLINATION><RA_OF_ASC_NODE>108.9833</RA_OF_ASC_NODE><ARG_OF_PERICENTER>187.6886</ARG_OF_PERICENTER><MEAN_ANOMALY>172.3881</MEAN_ANOMALY></meanElements><tleParameters><EPHEMERIS_TYPE>0</EPHEMERIS_TYPE><CLASSIFICATION_TYPE>U</CLASSIFICATION_TYPE><NORAD_CAT_ID>64503</NORAD_CAT_ID><ELEMENT_SET_NO>999</ELEMENT_SET_NO><REV_AT_EPOCH>2028</REV_AT_EPOCH><BSTAR>-.84230333E-4</BSTAR><MEAN_MOTION_DOT>-.867E-5</MEAN_MOTION_DOT><MEAN_MOTION_DDOT>0</MEAN_MOTION_DDOT></tleParameters></data></segment></body></omm>
<omm id="CCSDS_OMM_VERS" version="2.0">
<header><CREATION_DATE/><ORIGINATOR/></header><body><segment><metadata><OBJECT_NAME>KUIPER-00043</OBJECT_NAME><OBJECT_ID>2025-134E</OBJECT_ID><CENTER_NAME>EARTH</CENTER_NAME><REF_FRAME>TEME</REF_FRAME><TIME_SYSTEM>UTC</TIME_SYSTEM><MEAN_ELEMENT_THEORY>SGP4</MEAN_ELEMENT_THEORY></metadata><data><meanElements><EPOCH>2025-10-27T04:33:05.359968</EPOCH><MEAN_MOTION>14.79933924</MEAN_MOTION><ECCENTRICITY>.00039802</ECCENTRICITY><INCLINATION>51.9004</INCLINATION><RA_OF_ASC_NODE>104.3685</RA_OF_ASC_NODE><ARG_OF_PERICENTER>173.6027</ARG_OF_PERICENTER><MEAN_ANOMALY>186.4987</MEAN_ANOMALY></meanElements><tleParameters><EPHEMERIS_TYPE>0</EPHEMERIS_TYPE><CLASSIFICATION_TYPE>U</CLASSIFICATION_TYPE><NORAD_CAT_ID>64504</NORAD_CAT_ID><ELEMENT_SET_NO>999</ELEMENT_SET_NO><REV_AT_EPOCH>2029</REV_AT_EPOCH><BSTAR>.2042226E-3</BSTAR><MEAN_MOTION_DOT>.1335E-4</MEAN_MOTION_DOT><MEAN_MOTION_DDOT>0</MEAN_MOTION_DDOT></tleParameters></data></segment></body></omm>

</ndm>
