KUIPER-00035            
1 63748U 25088AA  25300.53850341 -.00003038  00000+0 -36968-3 0  9990
2 63748  51.9045 342.9058 0005230 355.4573   4.6341 14.79897121 27799
KUIPER-00037            
1 63749U 25088AB  25300.54011225  .00005466  00000+0  74453-3 0  9998
2 63749  51.9012 341.8497 0007646 303.5729  56.4503 14.79974897 28599
KUIPER-00038            
1 63750U 25088AC  25300.55874442  .00003548  00000+0  49227-3 0  9999
2 63750  51.9026 326.8011 0006499 358.7006   1.3939 14.80103918 27801
KUIPER-00039            
1 64500U 25134A   25300.86671003  .00010295  00000+0  13793-2 0  9992
2 64500  51.8989 100.4191 0011876 209.9078 150.1207 14.79837417 20404
KUIPER-00040            
1 64501U 25134B   25300.51649158 -.00000670  00000+0 -58097-4 0  9997
2 64501  51.8991 113.1309 0017978 186.7875 173.2846 14.79894531 20197
KUIPER-00041            
1 64502U 25134C   25300.51544009 -.00006196  00000+0 -78386-3 0  9998
2 64502  51.8996 114.4927 0014573 180.7545 179.3397 14.79865053 20172
KUIPER-00042            
1 64503U 25134D   25300.85678789 -.00000867  00000+0 -84230-4 0  9994
2 64503  51.9027 108.9833 0012844 187.6886 172.3881 14.79932103 20280
KUIPER-00043            
1 64504U 25134E   25300.18964537  .00001335  00000+0  20422-3 0  9991
2 64504  51.9004 104.3685 0003980 173.6027 186.4987 14.79933924 20290
